start=new Date('2022-01-29T00:00:00.000Z').valueOf();
sats=[{"ARG_OF_PERICENTER":"69.7829","FILE":"3286235","TLE_LINE2":"2 46054  53.0557  14.9780 0001667  69.7829 290.3339 15.06385849 82790","MEAN_ELEMENT_THEORY":"SGP4","OBJECT_TYPE":"PAYLOAD","TIME_SYSTEM":"UTC","DECAY_DATE":null,"REV_AT_EPOCH":"8279","NORAD_CAT_ID":"46054","REF_FRAME":"TEME","APOAPSIS":"548.411","OBJECT_ID":"2020-055AD","MEAN_MOTION":"15.06385849","ELEMENT_SET_NO":"999","GP_ID":"194843087","OBJECT_NAME":"STARLINK-1548","CLASSIFICATION_TYPE":"U","PERIAPSIS":"546.102","EPOCH":"2022-01-28T15:56:29.238720","CENTER_NAME":"EARTH","SITE":"AFETR","MEAN_MOTION_DDOT":"0.0000000000000","INCLINATION":"53.0557","ECCENTRICITY":"0.00016670","MEAN_MOTION_DOT":"-0.00002683","PERIOD":"95.593","RA_OF_ASC_NODE":"14.9780","BSTAR":"-0.00016134000000","LAUNCH_DATE":"2020-08-07","SEMIMAJOR_AXIS":"6925.392","TLE_LINE1":"1 46054U 20055AD  22028.66422730 -.00002683  00000-0 -16134-3 0  9994","MEAN_ANOMALY":"290.3339","COUNTRY_CODE":"US","RCS_SIZE":"LARGE","EPHEMERIS_TYPE":"0"},{"OBJECT_ID":"2020-055AE","MEAN_MOTION":"15.06393741","ELEMENT_SET_NO":"999","NORAD_CAT_ID":"46055","REF_FRAME":"TEME","DECAY_DATE":null,"REV_AT_EPOCH":"8279","APOAPSIS":"548.359","MEAN_ELEMENT_THEORY":"SGP4","TLE_LINE2":"2 46055  53.0561  15.0595 0001626  70.9628 289.1537 15.06393741 82794","ARG_OF_PERICENTER":"70.9628","FILE":"3286235","TIME_SYSTEM":"UTC","OBJECT_TYPE":"PAYLOAD","RCS_SIZE":"LARGE","COUNTRY_CODE":"US","EPHEMERIS_TYPE":"0","RA_OF_ASC_NODE":"15.0595","BSTAR":"0.00001485200000","LAUNCH_DATE":"2020-08-07","SEMIMAJOR_AXIS":"6925.368","TLE_LINE1":"1 46055U 20055AE  22028.64947494 -.00000060  00000-0  14852-4 0  9994","MEAN_ANOMALY":"289.1537","MEAN_MOTION_DDOT":"0.0000000000000","INCLINATION":"53.0561","PERIOD":"95.593","MEAN_MOTION_DOT":"-0.00000060","ECCENTRICITY":"0.00016260","CLASSIFICATION_TYPE":"U","OBJECT_NAME":"STARLINK-1554","EPOCH":"2022-01-28T15:35:14.634816","PERIAPSIS":"546.107","GP_ID":"194842838","SITE":"AFETR","CENTER_NAME":"EARTH"},{"TLE_LINE2":"2 46056  53.0550  14.9476 0001393  73.3315 286.7827 15.06385975 82807","MEAN_ELEMENT_THEORY":"SGP4","FILE":"3286235","ARG_OF_PERICENTER":"73.3315","TIME_SYSTEM":"UTC","OBJECT_TYPE":"PAYLOAD","NORAD_CAT_ID":"46056","REF_FRAME":"TEME","DECAY_DATE":null,"REV_AT_EPOCH":"8280","APOAPSIS":"548.221","OBJECT_ID":"2020-055AF","MEAN_MOTION":"15.06385975","ELEMENT_SET_NO":"999","CLASSIFICATION_TYPE":"U","OBJECT_NAME":"STARLINK-1561","EPOCH":"2022-01-28T16:07:04.715904","PERIAPSIS":"546.292","GP_ID":"194841586","CENTER_NAME":"EARTH","SITE":"AFETR","MEAN_MOTION_DDOT":"0.0000000000000","INCLINATION":"53.0550","PERIOD":"95.593","ECCENTRICITY":"0.00013930","MEAN_MOTION_DOT":"-0.00004619","RA_OF_ASC_NODE":"14.9476","LAUNCH_DATE":"2020-08-07","BSTAR":"-0.00029153000000","SEMIMAJOR_AXIS":"6925.392","TLE_LINE1":"1 46056U 20055AF  22028.67158236 -.00004619  00000-0 -29153-3 0  9990","MEAN_ANOMALY":"286.7827","RCS_SIZE":"LARGE","COUNTRY_CODE":"US","EPHEMERIS_TYPE":"0"},{"REF_FRAME":"TEME","NORAD_CAT_ID":"46058","REV_AT_EPOCH":"8279","DECAY_DATE":null,"APOAPSIS":"548.233","MEAN_ELEMENT_THEORY":"SGP4","TLE_LINE2":"2 46058  53.0559  14.8898 0001466  69.8498 290.2648 15.06398534 82792","ARG_OF_PERICENTER":"69.8498","FILE":"3286235","TIME_SYSTEM":"UTC","OBJECT_TYPE":"PAYLOAD","OBJECT_ID":"2020-055AH","ELEMENT_SET_NO":"999","MEAN_MOTION":"15.06398534","INCLINATION":"53.0559","MEAN_MOTION_DDOT":"0.0000000000000","PERIOD":"95.592","MEAN_MOTION_DOT":"-0.00001089","ECCENTRICITY":"0.00014660","EPOCH":"2022-01-28T16:23:00.992832","PERIAPSIS":"546.203","CLASSIFICATION_TYPE":"U","OBJECT_NAME":"STARLINK-1564","GP_ID":"194841836","SITE":"AFETR","CENTER_NAME":"EARTH","RCS_SIZE":"LARGE","COUNTRY_CODE":"US","EPHEMERIS_TYPE":"0","LAUNCH_DATE":"2020-08-07","SEMIMAJOR_AXIS":"6925.353","BSTAR":"-0.00005422800000","RA_OF_ASC_NODE":"14.8898","MEAN_ANOMALY":"290.2648","TLE_LINE1":"1 46058U 20055AH  22028.68265038 -.00001089  00000-0 -54228-4 0  9992"},{"MEAN_MOTION_DDOT":"0.0000000000000","INCLINATION":"53.0538","ECCENTRICITY":"0.00015870","MEAN_MOTION_DOT":"0.00002216","PERIOD":"95.592","GP_ID":"194842588","CLASSIFICATION_TYPE":"U","OBJECT_NAME":"STARLINK-1570","EPOCH":"2022-01-28T16:33:37.551744","PERIAPSIS":"546.090","SITE":"AFETR","CENTER_NAME":"EARTH","COUNTRY_CODE":"US","RCS_SIZE":"LARGE","EPHEMERIS_TYPE":"0","RA_OF_ASC_NODE":"14.8590","BSTAR":"0.00016759000000","LAUNCH_DATE":"2020-08-07","SEMIMAJOR_AXIS":"6925.324","TLE_LINE1":"1 46059U 20055AJ  22028.69001796  .00002216  00000-0  16759-3 0  9990","MEAN_ANOMALY":"285.6203","DECAY_DATE":null,"REV_AT_EPOCH":"8275","NORAD_CAT_ID":"46059","REF_FRAME":"TEME","APOAPSIS":"548.288","FILE":"3286235","ARG_OF_PERICENTER":"74.4962","TLE_LINE2":"2 46059  53.0538  14.8590 0001587  74.4962 285.6203 15.06407887 82754","MEAN_ELEMENT_THEORY":"SGP4","OBJECT_TYPE":"PAYLOAD","TIME_SYSTEM":"UTC","OBJECT_ID":"2020-055AJ","MEAN_MOTION":"15.06407887","ELEMENT_SET_NO":"999"},{"RCS_SIZE":"LARGE","COUNTRY_CODE":"US","EPHEMERIS_TYPE":"0","LAUNCH_DATE":"2020-08-07","SEMIMAJOR_AXIS":"6925.373","BSTAR":"-0.00003261300000","RA_OF_ASC_NODE":"14.8815","MEAN_ANOMALY":"288.6346","TLE_LINE1":"1 46060U 20055AK  22028.68634063 -.00000767  00000-0 -32613-4 0  9999","INCLINATION":"53.0561","MEAN_MOTION_DDOT":"0.0000000000000","PERIOD":"95.593","ECCENTRICITY":"0.00015330","MEAN_MOTION_DOT":"-0.00000767","PERIAPSIS":"546.176","EPOCH":"2022-01-28T16:28:19.830432","CLASSIFICATION_TYPE":"U","OBJECT_NAME":"STARLINK-1572","GP_ID":"194843338","CENTER_NAME":"EARTH","SITE":"AFETR","OBJECT_ID":"2020-055AK","ELEMENT_SET_NO":"999","MEAN_MOTION":"15.06392100","REF_FRAME":"TEME","NORAD_CAT_ID":"46060","REV_AT_EPOCH":"8276","DECAY_DATE":null,"APOAPSIS":"548.299","TLE_LINE2":"2 46060  53.0561  14.8815 0001533  71.4809 288.6346 15.06392100 82763","MEAN_ELEMENT_THEORY":"SGP4","ARG_OF_PERICENTER":"71.4809","FILE":"3286235","TIME_SYSTEM":"UTC","OBJECT_TYPE":"PAYLOAD"},{"ELEMENT_SET_NO":"999","MEAN_MOTION":"15.06399527","OBJECT_ID":"2020-055AL","OBJECT_TYPE":"PAYLOAD","TIME_SYSTEM":"UTC","ARG_OF_PERICENTER":"73.3496","FILE":"3286235","MEAN_ELEMENT_THEORY":"SGP4","TLE_LINE2":"2 46061  53.0569  14.3130 0001642  73.3496 286.7674 15.06399527 82810","APOAPSIS":"548.352","REV_AT_EPOCH":"8281","DECAY_DATE":null,"REF_FRAME":"TEME","NORAD_CAT_ID":"46061","MEAN_ANOMALY":"286.7674","TLE_LINE1":"1 46061U 20055AL  22028.81165086  .00000954  00000-0  82906-4 0  9995","SEMIMAJOR_AXIS":"6925.350","LAUNCH_DATE":"2020-08-07","BSTAR":"0.00008290600000","RA_OF_ASC_NODE":"14.3130","EPHEMERIS_TYPE":"0","COUNTRY_CODE":"US","RCS_SIZE":"LARGE","CENTER_NAME":"EARTH","SITE":"AFETR","GP_ID":"194842086","EPOCH":"2022-01-28T19:28:46.634304","PERIAPSIS":"546.078","OBJECT_NAME":"STARLINK-1573","CLASSIFICATION_TYPE":"U","ECCENTRICITY":"0.00016420","MEAN_MOTION_DOT":"0.00000954","PERIOD":"95.592","INCLINATION":"53.0569","MEAN_MOTION_DDOT":"0.0000000000000"},{"APOAPSIS":"548.250","NORAD_CAT_ID":"46062","REF_FRAME":"TEME","DECAY_DATE":null,"REV_AT_EPOCH":"8279","TIME_SYSTEM":"UTC","OBJECT_TYPE":"PAYLOAD","TLE_LINE2":"2 46062  53.0559  13.8865 0001460  69.8896 290.2250 15.06391715 82799","MEAN_ELEMENT_THEORY":"SGP4","FILE":"3286235","ARG_OF_PERICENTER":"69.8896","MEAN_MOTION":"15.06391715","ELEMENT_SET_NO":"999","OBJECT_ID":"2020-055AM","PERIOD":"95.593","ECCENTRICITY":"0.00014600","MEAN_MOTION_DOT":"0.00001154","MEAN_MOTION_DDOT":"0.0000000000000","INCLINATION":"53.0559","CENTER_NAME":"EARTH","SITE":"AFETR","CLASSIFICATION_TYPE":"U","OBJECT_NAME":"STARLINK-1574","EPOCH":"2022-01-28T21:52:07.372416","PERIAPSIS":"546.228","GP_ID":"194842336","EPHEMERIS_TYPE":"0","RCS_SIZE":"LARGE","COUNTRY_CODE":"US","TLE_LINE1":"1 46062U 20055AM  22028.91119644  .00001154  00000-0  96357-4 0  9994","MEAN_ANOMALY":"290.2250","RA_OF_ASC_NODE":"13.8865","BSTAR":"0.00009635700000","LAUNCH_DATE":"2020-08-07","SEMIMAJOR_AXIS":"6925.374"},{"SITE":"AFETR","CENTER_NAME":"EARTH","GP_ID":"194812543","EPOCH":"2022-01-28T09:02:28.517280","PERIAPSIS":"546.159","OBJECT_NAME":"STARLINK-1577","CLASSIFICATION_TYPE":"U","MEAN_MOTION_DOT":"0.00000909","ECCENTRICITY":"0.00015290","PERIOD":"95.592","INCLINATION":"53.0553","MEAN_MOTION_DDOT":"0.0000000000000","MEAN_ANOMALY":"281.5435","TLE_LINE1":"1 46063U 20055AN  22028.37671895  .00000909  00000-0  79904-4 0  9992","BSTAR":"0.00007990400000","LAUNCH_DATE":"2020-08-07","SEMIMAJOR_AXIS":"6925.353","RA_OF_ASC_NODE":"16.2783","EPHEMERIS_TYPE":"0","COUNTRY_CODE":"US","RCS_SIZE":"LARGE","OBJECT_TYPE":"PAYLOAD","TIME_SYSTEM":"UTC","FILE":"3285972","ARG_OF_PERICENTER":"78.5725","MEAN_ELEMENT_THEORY":"SGP4","TLE_LINE2":"2 46063  53.0553  16.2783 0001529  78.5725 281.5435 15.06398579 82742","APOAPSIS":"548.277","REV_AT_EPOCH":"8274","DECAY_DATE":null,"REF_FRAME":"TEME","NORAD_CAT_ID":"46063","ELEMENT_SET_NO":"999","MEAN_MOTION":"15.06398579","OBJECT_ID":"2020-055AN"},{"GP_ID":"194842839","OBJECT_NAME":"STARLINK-1583","CLASSIFICATION_TYPE":"U","EPOCH":"2022-01-28T16:12:23.715936","PERIAPSIS":"545.969","SITE":"AFETR","CENTER_NAME":"EARTH","MEAN_MOTION_DDOT":"0.0000000000000","INCLINATION":"53.0560","MEAN_MOTION_DOT":"0.00003013","ECCENTRICITY":"0.00017930","PERIOD":"95.592","RA_OF_ASC_NODE":"14.9266","LAUNCH_DATE":"2020-08-07","SEMIMAJOR_AXIS":"6925.346","BSTAR":"0.00022106000000","TLE_LINE1":"1 46064U 20055AP  22028.67527449  .00003013  00000-0  22106-3 0  9991","MEAN_ANOMALY":"300.4895","COUNTRY_CODE":"US","RCS_SIZE":"LARGE","EPHEMERIS_TYPE":"0","ARG_OF_PERICENTER":"59.6271","FILE":"3286235","TLE_LINE2":"2 46064  53.0560  14.9266 0001793  59.6271 300.4895 15.06400975 82791","MEAN_ELEMENT_THEORY":"SGP4","OBJECT_TYPE":"PAYLOAD","TIME_SYSTEM":"UTC","DECAY_DATE":null,"REV_AT_EPOCH":"8279","NORAD_CAT_ID":"46064","REF_FRAME":"TEME","APOAPSIS":"548.452","OBJECT_ID":"2020-055AP","MEAN_MOTION":"15.06400975","ELEMENT_SET_NO":"999"}];
